NORAD_CAT_ID,OBJECT_NAME,OBJECT_TYPE,EPOCH,MEAN_MOTION,ECCENTRICITY,INCLINATION,RA_OF_ASC_NODE,ARG_OF_PERICENTER,MEAN_ANOMALY,BSTAR,MEAN_MOTION_DOT,MEAN_MOTION_DDOT,TLE_LINE0,TLE_LINE1,TLE_LINE2,SEMIMAJOR_AXIS,PERIOD,APOGEE,PERIGEE,DECAYED
52991.0,STARLINK-4285,PAYLOAD,2023-02-06 15:57:49,15.08857639,0.0001279,53.2163,123.5402,81.8238,278.2899,0.00040534,6.172e-05,0.0,0 STARLINK-4285,1 52991U 22076F   23037.66516149  .00006172  00000-0  40534-3 0  9991,2 52991  53.2163 123.5402 0001279  81.8238 278.2899 15.08857639 32567,6917.826,95.436,540.576,538.807,0.0
52991.0,STARLINK-4285,PAYLOAD,2023-02-07 12:37:49,15.088663,0.000114,53.2149,119.6756,101.1304,258.9817,0.00049604,7.621e-05,0.0,0 STARLINK-4285,1 52991U 22076F   23038.52627269  .00007621  00000-0  49604-3 0  9990,2 52991  53.2149 119.6756 0001140 101.1304 258.9817 15.08866300 32690,6917.8,95.436,540.454,538.876,0.0
52991.0,STARLINK-4285,PAYLOAD,2023-02-07 14:13:12,15.08875334,0.0001172,53.2149,119.3774,101.7203,258.3921,0.00072875,0.0001134,0.0,0 STARLINK-4285,1 52991U 22076F   23038.59250984  .00011340  00000-0  72875-3 0  9992,2 52991  53.2149 119.3774 0001172 101.7203 258.3921 15.08875334 33177,6917.772,95.435,540.448,538.827,0.0
52991.0,STARLINK-4285,PAYLOAD,2023-02-07 17:23:58,15.08890417,0.0001104,53.2145,118.7818,98.0131,262.0986,0.0015073,0.00023815,0.0,0 STARLINK-4285,1 52991U 22076F   23038.72498619  .00023815  00000-0  15073-2 0  9992,2 52991  53.2145 118.7818 0001104  98.0131 262.0986 15.08890417 32720,6917.726,95.434,540.355,538.828,0.0
52991.0,STARLINK-4285,PAYLOAD,2023-02-07 22:10:08,15.08849119,4.46e-05,53.2145,117.8905,224.457,135.6386,-0.00013713,-2.47e-05,0.0,0 STARLINK-4285,1 52991U 22076F   23038.92370805 -.00002470  00000-0 -13713-3 0  9996,2 52991  53.2145 117.8905 0000446 224.4570 135.6386 15.08849119 33225,6917.853,95.437,540.026,539.409,0.0
52991.0,STARLINK-4285,PAYLOAD,2023-02-08 07:42:28,15.08840137,0.0001081,53.2145,116.1073,90.0521,270.0595,0.0010809,0.00016956,0.0,0 STARLINK-4285,1 52991U 22076F   23039.32115761  .00016956  00000-0  10809-2 0  9993,2 52991  53.2145 116.1073 0001081  90.0521 270.0595 15.08840137 33285,6917.88,95.438,540.493,538.997,0.0
52991.0,STARLINK-4285,PAYLOAD,2023-02-08 12:28:37,15.08857488,0.0001305,53.2137,115.2154,88.0921,272.0221,0.0025133,0.00039957,0.0,0 STARLINK-4285,1 52991U 22076F   23039.51987662  .00039957  00000-0  25133-2 0  9993,2 52991  53.2137 115.2154 0001305  88.0921 272.0221 15.08857488 32842,6917.827,95.436,540.595,538.789,0.0
52991.0,STARLINK-4285,PAYLOAD,2023-02-08 17:14:46,15.08875221,0.0001383,53.2135,114.323,84.1472,275.9678,0.0030539,0.00048698,0.0,0 STARLINK-4285,1 52991U 22076F   23039.71859391  .00048698  00000-0  30539-2 0  9990,2 52991  53.2135 114.3230 0001383  84.1472 275.9678 15.08875221 33348,6917.773,95.435,540.594,538.681,0.0
52991.0,STARLINK-4285,PAYLOAD,2023-02-09 10:44:01,15.08848169,0.0001484,53.2131,111.0503,120.3754,239.7385,0.0023014,0.00036537,0.0,0 STARLINK-4285,1 52991U 22076F   23040.44724364  .00036537  00000-0  23014-2 0  9992,2 52991  53.2131 111.0503 0001484 120.3754 239.7385 15.08848169 32982,6917.855,95.437,540.747,538.694,0.0
52991.0,STARLINK-4285,PAYLOAD,2023-02-09 17:05:34,15.08865964,0.0001203,53.2131,109.8618,76.4736,283.639,0.0026493,0.00042158,0.0,0 STARLINK-4285,1 52991U 22076F   23040.71220415  .00042158  00000-0  26493-2 0  9990,2 52991  53.2131 109.8618 0001203  76.4736 283.6390 15.08865964 33497,6917.801,95.436,540.498,538.834,0.0
52991.0,STARLINK-4285,PAYLOAD,2023-02-09 21:51:44,15.08822662,0.0001215,53.2135,108.9689,98.839,261.2739,0.00073353,0.000114,0.0,0 STARLINK-4285,1 52991U 22076F   23040.91092997  .00011400  00000-0  73353-3 0  9998,2 52991  53.2135 108.9689 0001215  98.8390 261.2739 15.08822662 33055,6917.933,95.439,540.639,538.958,0.0
52991.0,STARLINK-4285,PAYLOAD,2023-02-10 10:34:49,15.08850808,0.000138,53.213,106.5908,84.0309,276.084,0.0028363,0.00045155,0.0,0 STARLINK-4285,1 52991U 22076F   23041.44085574  .00045155  00000-0  28363-2 0  9994,2 52991  53.2130 106.5908 0001380  84.0309 276.0840 15.08850808 33609,6917.847,95.437,540.667,538.758,0.0
52991.0,STARLINK-4285,PAYLOAD,2023-02-10 21:42:32,15.08844041,0.0002169,53.2135,104.5101,67.9473,292.175,0.0017717,0.00028025,0.0,0 STARLINK-4285,1 52991U 22076F   23041.90454215  .00028025  00000-0  17717-2 0  9995,2 52991  53.2135 104.5101 0002169  67.9473 292.1750 15.08844041 33202,6917.868,95.437,541.234,538.233,0.0
52991.0,STARLINK-4285,PAYLOAD,2023-02-11 15:11:46,15.08873507,0.0001586,53.2131,101.2356,88.4414,271.676,0.0015347,0.00024244,0.0,0 STARLINK-4285,1 52991U 22076F   23042.63317200  .00024244  00000-0  15347-2 0  9994,2 52991  53.2131 101.2356 0001586  88.4414 271.6760 15.08873507 33784,6917.778,95.435,540.74,538.546,0.0
52991.0,STARLINK-4285,PAYLOAD,2023-02-12 03:54:51,15.08852557,0.0001346,53.2135,98.8591,100.6134,259.501,0.0013943,0.0002198,0.0,0 STARLINK-4285,1 52991U 22076F   23043.16309530  .00021980  00000-0  13943-2 0  9994,2 52991  53.2135  98.8591 0001346 100.6134 259.5010 15.08852557 33864,6917.842,95.437,540.638,538.776,0.0
52991.0,STARLINK-4285,PAYLOAD,2023-02-13 03:45:38,15.08840505,0.0001731,53.2148,94.3945,126.1374,233.9778,0.001294,0.00020366,0.0,0 STARLINK-4285,1 52991U 22076F   23044.15669710  .00020366  00000-0  12940-2 0  9996,2 52991  53.2148  94.3945 0001731 126.1374 233.9778 15.08840505 34014,6917.879,95.438,540.941,538.546,0.0
52991.0,STARLINK-4285,PAYLOAD,2023-02-13 10:07:11,15.08856203,0.0001353,53.2144,93.2083,110.8839,249.2298,0.0024203,0.00038459,0.0,0 STARLINK-4285,1 52991U 22076F   23044.42165667  .00038459  00000-0  24203-2 0  9995,2 52991  53.2144  93.2083 0001353 110.8839 249.2298 15.08856203 33587,6917.831,95.437,540.632,538.76,0.0
52991.0,STARLINK-4285,PAYLOAD,2023-02-13 19:39:30,15.08831061,0.0003138,53.2151,91.4215,88.5882,271.547,0.00084972,0.00013258,0.0,0 STARLINK-4285,1 52991U 22076F   23044.81910179  .00013258  00000-0  84972-3 0  9994,2 52991  53.2151  91.4215 0003138  88.5882 271.5470 15.08831061 34119,6917.908,95.438,541.944,537.602,0.0
52991.0,STARLINK-4285,PAYLOAD,2023-02-14 13:08:44,15.08856355,0.0001369,53.2164,88.1536,91.0327,269.0822,0.001692,0.00026755,0.0,0 STARLINK-4285,1 52991U 22076F   23045.54773737  .00026755  00000-0  16920-2 0  9995,2 52991  53.2164  88.1536 0001369  91.0327 269.0822 15.08856355 33754,6917.83,95.437,540.642,538.748,0.0
52991.0,STARLINK-4285,PAYLOAD,2023-02-14 19:30:17,15.08841815,0.0001264,53.2152,86.9636,104.792,255.3212,0.0008989,0.00014048,0.0,0 STARLINK-4285,1 52991U 22076F   23045.81270021  .00014048  00000-0  89890-3 0  9992,2 52991  53.2152  86.9636 0001264 104.7920 255.3212 15.08841815 34266,6917.875,95.437,540.614,538.865,0.0
52991.0,STARLINK-4285,PAYLOAD,2023-02-15 08:13:22,15.08845052,0.0001548,53.2148,84.585,95.1674,264.9495,0.0016036,0.00025329,0.0,0 STARLINK-4285,1 52991U 22076F   23046.34262224  .00025329  00000-0  16036-2 0  9992,2 52991  53.2148  84.5850 0001548  95.1674 264.9495 15.08845052 34342,6917.865,95.437,540.801,538.659,0.0
52991.0,STARLINK-4285,PAYLOAD,2023-02-15 12:59:31,15.08867631,0.0001398,53.2145,83.6931,99.6107,260.5043,0.0023289,0.00036999,0.0,0 STARLINK-4285,1 52991U 22076F   23046.54133884  .00036999  00000-0  23289-2 0  9996,2 52991  53.2145  83.6931 0001398  99.6107 260.5043 15.08867631 33901,6917.796,95.436,540.628,538.694,0.0
52991.0,STARLINK-4285,PAYLOAD,2023-02-15 19:21:04,15.08857534,0.0001825,53.215,82.503,93.8326,266.2875,0.0014449,0.00022794,0.0,0 STARLINK-4285,1 52991U 22076F   23046.80630034  .00022794  00000-0  14449-2 0  9990,2 52991  53.2150  82.5030 0001825  93.8326 266.2875 15.08857534 33940,6917.827,95.436,540.954,538.429,0.0
52991.0,STARLINK-4285,PAYLOAD,2023-02-16 08:04:08,15.08872415,0.0001469,53.2158,80.1242,97.372,262.7439,0.0013867,0.0002187,0.0,0 STARLINK-4285,1 52991U 22076F   23047.33621031  .00021870  00000-0  13867-2 0  9993,2 52991  53.2158  80.1242 0001469  97.3720 262.7439 15.08872415 34491,6917.781,95.436,540.663,538.63,0.0
52991.0,STARLINK-4285,PAYLOAD,2023-02-16 11:14:54,15.08883434,0.0001355,53.2147,79.5296,93.8869,266.2278,0.0019238,0.00030499,0.0,0 STARLINK-4285,1 52991U 22076F   23047.46868655  .00030499  00000-0  19238-2 0  9997,2 52991  53.2147  79.5296 0001355  93.8869 266.2278 15.08883434 34043,6917.748,95.435,540.55,538.675,0.0
52991.0,STARLINK-4285,PAYLOAD,2023-02-16 19:11:51,15.08838426,0.000284,53.2152,78.0425,74.8773,285.2533,0.00081404,0.00012691,0.0,0 STARLINK-4285,1 52991U 22076F   23047.79990033  .00012691  00000-0  81404-3 0  9998,2 52991  53.2152  78.0425 0002840  74.8773 285.2533 15.08838426 34091,6917.885,95.438,541.715,537.786,0.0
52991.0,STARLINK-4285,PAYLOAD,2023-02-17 07:54:56,15.08815783,0.000118,53.2146,75.6632,74.9799,285.1323,0.0011508,0.00018062,0.0,0 STARLINK-4285,1 52991U 22076F   23048.32982468  .00018062  00000-0  11508-2 0  9996,2 52991  53.2146  75.6632 0001180  74.9799 285.1323 15.08815783 34640,6917.954,95.439,540.636,539.003,0.0
52991.0,STARLINK-4285,PAYLOAD,2023-02-17 09:30:20,15.08818871,0.0001148,53.2147,75.3656,72.9621,287.1496,0.0017704,0.00027984,0.0,0 STARLINK-4285,1 52991U 22076F   23048.39606627  .00027984  00000-0  17704-2 0  9990,2 52991  53.2147  75.3656 0001148  72.9621 287.1496 15.08818871 34183,6917.945,95.439,540.604,539.016,0.0
52991.0,STARLINK-4285,PAYLOAD,2023-02-17 19:02:39,15.0883876,0.0001245,53.2145,73.5814,72.0737,288.0391,0.001883,0.00029806,0.0,0 STARLINK-4285,1 52991U 22076F   23048.79351026  .00029806  00000-0  18830-2 0  9990,2 52991  53.2145  73.5814 0001245  72.0737 288.0391 15.08838760 34244,6917.884,95.438,540.61,538.888,0.0
52991.0,STARLINK-4285,PAYLOAD,2023-02-18 07:45:43,15.08864807,0.0001298,53.2145,71.202,72.6068,287.5066,0.0016016,0.00025311,0.0,0 STARLINK-4285,1 52991U 22076F   23049.32342540  .00025311  00000-0  16016-2 0  9992,2 52991  53.2145  71.2020 0001298  72.6068 287.5066 15.08864807 34793,6917.805,95.436,540.567,538.772,0.0
